******** Week 220 almanac for PRN-15 ********
ID:                             15
Health:                         0
Eccentricity:                   0.00000000000000e+00
Time of Applicability(s):       259200
Orbital Inclination(rad):       9.77384381116825e-01
Rate of Right Ascen(r/s):       0.00000000000000e+00
SQRT(A)  (m 1/2):               5.44058820349418e+03
Right Ascen at Week(rad):       2.53072741539178e+00
Argument of Perigee(rad):       0.00000000000000e+00
Mean Anom(rad):                 -1.68773338667852e+00
Af0(s):                         0.00000000000000e+00
Af1(s/s):                       0.00000000000000e+00
week:                           220

******** Week 220 almanac for PRN-16 ********
ID:                             16
Health:                         0
Eccentricity:                   0.00000000000000e+00
Time of Applicability(s):       259200
Orbital Inclination(rad):       9.77384381116825e-01
Rate of Right Ascen(r/s):       0.00000000000000e+00
SQRT(A)  (m 1/2):               5.44058820349418e+03
Right Ascen at Week(rad):       2.53072741539178e+00
Argument of Perigee(rad):       0.00000000000000e+00
Mean Anom(rad):                 -9.02335223281068e-01
Af0(s):                         0.00000000000000e+00
Af1(s/s):                       0.00000000000000e+00
week:                           220

******** Week 220 almanac for PRN-17 ********
ID:                             17
Health:                         0
Eccentricity:                   0.00000000000000e+00
Time of Applicability(s):       259200
Orbital Inclination(rad):       9.77384381116825e-01
Rate of Right Ascen(r/s):       0.00000000000000e+00
SQRT(A)  (m 1/2):               5.44058820349418e+03
Right Ascen at Week(rad):       -1.65806278939461e+00
Argument of Perigee(rad):       0.00000000000000e+00
Mean Anom(rad):                 1.44862327915529e-01
Af0(s):                         0.00000000000000e+00
Af1(s/s):                       0.00000000000000e+00
week:                           220

******** Week 220 almanac for PRN-18 ********
ID:                             18
Health:                         0
Eccentricity:                   0.00000000000000e+00
Time of Applicability(s):       259200
Orbital Inclination(rad):       9.77384381116825e-01
Rate of Right Ascen(r/s):       0.00000000000000e+00
SQRT(A)  (m 1/2):               5.44058820349418e+03
Right Ascen at Week(rad):       -1.65806278939461e+00
Argument of Perigee(rad):       0.00000000000000e+00
Mean Anom(rad):                 9.30260491312978e-01
Af0(s):                         0.00000000000000e+00
Af1(s/s):                       0.00000000000000e+00
week:                           220

******** Week 220 almanac for PRN-19 ********
ID:                             19
Health:                         0
Eccentricity:                   0.00000000000000e+00
Time of Applicability(s):       259200
Orbital Inclination(rad):       9.77384381116825e-01
Rate of Right Ascen(r/s):       0.00000000000000e+00
SQRT(A)  (m 1/2):               5.44058820349418e+03
Right Ascen at Week(rad):       -1.65806278939461e+00
Argument of Perigee(rad):       0.00000000000000e+00
Mean Anom(rad):                 1.71565865471043e+00
Af0(s):                         0.00000000000000e+00
Af1(s/s):                       0.00000000000000e+00
week:                           220

******** Week 220 almanac for PRN-20 ********
ID:                             20
Health:                         0
Eccentricity:                   0.00000000000000e+00
Time of Applicability(s):       259200
Orbital Inclination(rad):       9.77384381116825e-01
Rate of Right Ascen(r/s):       0.00000000000000e+00
SQRT(A)  (m 1/2):               5.44058820349418e+03
Right Ascen at Week(rad):       -1.65806278939461e+00
Argument of Perigee(rad):       0.00000000000000e+00
Mean Anom(rad):                 2.50105681810787e+00
Af0(s):                         0.00000000000000e+00
Af1(s/s):                       0.00000000000000e+00
week:                           220

******** Week 220 almanac for PRN-21 ********
ID:                             21
Health:                         0
Eccentricity:                   0.00000000000000e+00
Time of Applicability(s):       259200
Orbital Inclination(rad):       9.77384381116825e-01
Rate of Right Ascen(r/s):       0.00000000000000e+00
SQRT(A)  (m 1/2):               5.44058820349418e+03
Right Ascen at Week(rad):       -1.65806278939461e+00
Argument of Perigee(rad):       0.00000000000000e+00
Mean Anom(rad):                 -2.99673032567426e+00
Af0(s):                         0.00000000000000e+00
Af1(s/s):                       0.00000000000000e+00
week:                           220

******** Week 220 almanac for PRN-22 ********
ID:                             22
Health:                         0
Eccentricity:                   0.00000000000000e+00
Time of Applicability(s):       259200
Orbital Inclination(rad):       9.77384381116825e-01
Rate of Right Ascen(r/s):       0.00000000000000e+00
SQRT(A)  (m 1/2):               5.44058820349418e+03
Right Ascen at Week(rad):       -1.65806278939461e+00
Argument of Perigee(rad):       0.00000000000000e+00
Mean Anom(rad):                 -2.21133216227682e+00
Af0(s):                         0.00000000000000e+00
Af1(s/s):                       0.00000000000000e+00
week:                           220

******** Week 220 almanac for PRN-23 ********
ID:                             23
Health:                         0
Eccentricity:                   0.00000000000000e+00
Time of Applicability(s):       259200
Orbital Inclination(rad):       9.77384381116825e-01
Rate of Right Ascen(r/s):       0.00000000000000e+00
SQRT(A)  (m 1/2):               5.44058820349418e+03
Right Ascen at Week(rad):       -1.65806278939461e+00
Argument of Perigee(rad):       0.00000000000000e+00
Mean Anom(rad):                 -1.42593399887937e+00
Af0(s):                         0.00000000000000e+00
Af1(s/s):                       0.00000000000000e+00
week:                           220

******** Week 220 almanac for PRN-24 ********
ID:                             24
Health:                         0
Eccentricity:                   0.00000000000000e+00
Time of Applicability(s):       259200
Orbital Inclination(rad):       9.77384381116825e-01
Rate of Right Ascen(r/s):       0.00000000000000e+00
SQRT(A)  (m 1/2):               5.44058820349418e+03
Right Ascen at Week(rad):       -1.65806278939461e+00
Argument of Perigee(rad):       0.00000000000000e+00
Mean Anom(rad):                 -6.40535835481919e-01
Af0(s):                         0.00000000000000e+00
Af1(s/s):                       0.00000000000000e+00
week:                           220

******** Week 220 almanac for PRN-25 ********
ID:                             25
Health:                         0
Eccentricity:                   0.00000000000000e+00
Time of Applicability(s):       259200
Orbital Inclination(rad):       9.77384381116825e-01
Rate of Right Ascen(r/s):       0.00000000000000e+00
SQRT(A)  (m 1/2):               5.44058820349418e+03
Right Ascen at Week(rad):       4.36332312998582e-01
Argument of Perigee(rad):       0.00000000000000e+00
Mean Anom(rad):                 1.39626340159546e-02
Af0(s):                         0.00000000000000e+00
Af1(s/s):                       0.00000000000000e+00
week:                           220

******** Week 220 almanac for PRN-26 ********
ID:                             26
Health:                         0
Eccentricity:                   0.00000000000000e+00
Time of Applicability(s):       259200
Orbital Inclination(rad):       9.77384381116825e-01
Rate of Right Ascen(r/s):       0.00000000000000e+00
SQRT(A)  (m 1/2):               5.44058820349418e+03
Right Ascen at Week(rad):       4.36332312998582e-01
Argument of Perigee(rad):       0.00000000000000e+00
Mean Anom(rad):                 -3.12763001957384e+00
Af0(s):                         0.00000000000000e+00
Af1(s/s):                       0.00000000000000e+00
week:                           220

******** Week 220 almanac for PRN-27 ********
ID:                             27
Health:                         0
Eccentricity:                   0.00000000000000e+00
Time of Applicability(s):       259200
Orbital Inclination(rad):       9.77384381116825e-01
Rate of Right Ascen(r/s):       0.00000000000000e+00
SQRT(A)  (m 1/2):               5.44058820349418e+03
Right Ascen at Week(rad):       2.53072741539178e+00
Argument of Perigee(rad):       0.00000000000000e+00
Mean Anom(rad):                 1.84655834861000e+00
Af0(s):                         0.00000000000000e+00
Af1(s/s):                       0.00000000000000e+00
week:                           220

******** Week 220 almanac for PRN-28 ********
ID:                             28
Health:                         0
Eccentricity:                   0.00000000000000e+00
Time of Applicability(s):       259200
Orbital Inclination(rad):       9.77384381116825e-01
Rate of Right Ascen(r/s):       0.00000000000000e+00
SQRT(A)  (m 1/2):               5.44058820349418e+03
Right Ascen at Week(rad):       2.53072741539178e+00
Argument of Perigee(rad):       0.00000000000000e+00
Mean Anom(rad):                 -1.29503430497979e+00
Af0(s):                         0.00000000000000e+00
Af1(s/s):                       0.00000000000000e+00
week:                           220

